CCSDS_OMM_VERS = 2.0
CREATION_DATE  = 
ORIGINATOR     = 

OBJECT_NAME    = CZ-3B R/B
OBJECT_ID      = 2025-312B
CENTER_NAME    = EARTH
REF_FRAME      = TEME
TIME_SYSTEM    = UTC
MEAN_ELEMENT_THEORY = SGP/SGP4

EPOCH          = 2025-12-31T21:48:41.957280
MEAN_MOTION    = 2.39516308
ECCENTRICITY   = .7238531
INCLINATION    = 28.4417
RA_OF_ASC_NODE = 332.3269
ARG_OF_PERICENTER = 182.2099
MEAN_ANOMALY   = 170.7438

EPHEMERIS_TYPE = 0
CLASSIFICATION_TYPE = U
NORAD_CAT_ID   = 67247
ELEMENT_SET_NO = 999
REV_AT_EPOCH   = 12
BSTAR          = .45202E-3
MEAN_MOTION_DOT = .112298E-2
MEAN_MOTION_DDOT = -.65195E-6

CCSDS_OMM_VERS = 2.0
CREATION_DATE  = 
ORIGINATOR     = 

OBJECT_NAME    = TIANHUI 7
OBJECT_ID      = 2025-314A
CENTER_NAME    = EARTH
REF_FRAME      = TEME
TIME_SYSTEM    = UTC
MEAN_ELEMENT_THEORY = SGP/SGP4

EPOCH          = 2025-12-31T22:10:09.537600
MEAN_MOTION    = 15.25236623
ECCENTRICITY   = .0001255
INCLINATION    = 97.4225
RA_OF_ASC_NODE = 78.1262
ARG_OF_PERICENTER = 100.3877
MEAN_ANOMALY   = 259.7502

EPHEMERIS_TYPE = 0
CLASSIFICATION_TYPE = U
NORAD_CAT_ID   = 67300
ELEMENT_SET_NO = 999
REV_AT_EPOCH   = 28
BSTAR          = .14121E-3
MEAN_MOTION_DOT = .3476E-4
MEAN_MOTION_DDOT = 0

CCSDS_OMM_VERS = 2.0
CREATION_DATE  = 
ORIGINATOR     = 

OBJECT_NAME    = CZ-4B R/B
OBJECT_ID      = 2025-314B
CENTER_NAME    = EARTH
REF_FRAME      = TEME
TIME_SYSTEM    = UTC
MEAN_ELEMENT_THEORY = SGP/SGP4

EPOCH          = 2025-12-31T18:03:23.820192
MEAN_MOTION    = 15.66057522
ECCENTRICITY   = .01499925
INCLINATION    = 97.3775
RA_OF_ASC_NODE = 78.0261
ARG_OF_PERICENTER = 13.3608
MEAN_ANOMALY   = 347.1555

EPHEMERIS_TYPE = 0
CLASSIFICATION_TYPE = U
NORAD_CAT_ID   = 67301
ELEMENT_SET_NO = 999
REV_AT_EPOCH   = 21
BSTAR          = .52684287E-3
MEAN_MOTION_DOT = .99613E-3
MEAN_MOTION_DDOT = .4870574E-5

CCSDS_OMM_VERS = 2.0
CREATION_DATE  = 
ORIGINATOR     = 

OBJECT_NAME    = 2025-315A
OBJECT_ID      = 2025-315A
CENTER_NAME    = EARTH
REF_FRAME      = TEME
TIME_SYSTEM    = UTC
MEAN_ELEMENT_THEORY = SGP/SGP4

EPOCH          = 2025-12-31T14:33:49.080384
MEAN_MOTION    = 2.27849576
ECCENTRICITY   = .72953738
INCLINATION    = 19.5051
RA_OF_ASC_NODE = 100.4594
ARG_OF_PERICENTER = 180.0434
MEAN_ANOMALY   = 167.9972

EPHEMERIS_TYPE = 0
CLASSIFICATION_TYPE = U
NORAD_CAT_ID   = 67302
ELEMENT_SET_NO = 999
REV_AT_EPOCH   = 2
BSTAR          = .11156382E-2
MEAN_MOTION_DOT = .7344E-4
MEAN_MOTION_DDOT = 0

