CZ-3B R/B               
1 67247U 25312B   25365.90881895  .00112298 -65195-6  45202-3 0  9990
2 67247  28.4417 332.3269 7238531 182.2099 170.7438  2.39516308   122
TIANHUI 7               
1 67300U 25314A   25365.92372150  .00003476  00000+0  14121-3 0  9992
2 67300  97.4225  78.1262 0001255 100.3877 259.7502 15.25236623   287
CZ-4B R/B               
1 67301U 25314B   25365.75235903  .00099613  48706-5  52684-3 0  9993
2 67301  97.3775  78.0261 0149992  13.3608 347.1555 15.66057522   218
2025-315A               
1 67302U 25315A   25365.60681806  .00007344  00000+0  11156-2 0  9993
2 67302  19.5051 100.4594 7295373 180.0434 167.9972  2.27849576    23
